{"fetched_at":"2026-03-29T02:12:04Z","count":15717,"tles":[{"name":"YAOGAN-39 04A","line1":"1 58141U 23163A   26086.55834171 -.00000150  00000+0 -46956-5 0  9992","line2":"2 58141  34.9995 138.0979 0004902 338.7942  21.2569 15.22919488135124","category":"Other"}]}