{
  "norad_id": 58141,
  "name": "YAOGAN-39 04A",
  "history": [
    {
      "epoch": "2026-03-27T13:24:00.723744Z",
      "apogee_km": 500.410133992139,
      "perigee_km": 493.6697105375506,
      "latitude_deg": 4.117951188444331e-06,
      "longitude_deg": 112.10347353808912,
      "height_km": 492.8070250651418,
      "semi_major_axis_km": 6875.1769222648445,
      "eccentricity": 0.0004902,
      "inclination_deg": 34.9995,
      "raan_deg": 138.0979,
      "arg_perigee_deg": 338.7942,
      "mean_anomaly_deg": 21.2569,
      "mean_motion_rev_day": 15.22919488
    }
  ]
}